NORAD_CAT_ID,OBJECT_NAME,OBJECT_TYPE,EPOCH,MEAN_MOTION,ECCENTRICITY,INCLINATION,RA_OF_ASC_NODE,ARG_OF_PERICENTER,MEAN_ANOMALY,BSTAR,MEAN_MOTION_DOT,MEAN_MOTION_DDOT,TLE_LINE0,TLE_LINE1,TLE_LINE2,SEMIMAJOR_AXIS,PERIOD,APOGEE,PERIGEE,DECAYED
52705.0,STARLINK-3844,PAYLOAD,2023-12-02 00:21:39,15.08863069,0.0003286,53.2171,254.1859,147.848,212.2713,0.00020457,2.971e-05,0.0,0 STARLINK-3844,1 52705U 22053BB  23336.01504591  .00002971  00000-0  20457-3 0  9993,2 52705  53.2171 254.1859 0003286 147.8480 212.2713 15.08863069 86216,6917.81,95.436,541.948,537.402,0.0
52705.0,STARLINK-3844,PAYLOAD,2023-12-02 22:37:04,15.08837045,0.0002236,53.2158,250.0208,132.6611,227.457,-0.00026007,-4.425e-05,0.0,0 STARLINK-3844,1 52705U 22053BB  23336.94241088 -.00004425  00000-0 -26007-3 0  9999,2 52705  53.2158 250.0208 0002236 132.6611 227.4570 15.08837045 86355,6917.889,95.438,541.301,538.208,0.0
52705.0,STARLINK-3844,PAYLOAD,2023-12-03 03:23:14,15.08826866,0.0001611,53.2155,249.1292,117.3128,242.8028,-0.00033407,-5.599e-05,0.0,0 STARLINK-3844,1 52705U 22053BB  23337.14113691 -.00005599  00000-0 -33407-3 0  9995,2 52705  53.2155 249.1292 0001611 117.3128 242.8028 15.08826866 85956,6917.921,95.438,540.9,538.671,0.0
52705.0,STARLINK-3844,PAYLOAD,2023-12-04 01:38:38,15.08828251,0.0001871,53.2154,244.9687,130.0064,230.1093,-0.00011075,-2.05e-05,0.0,0 STARLINK-3844,1 52705U 22053BB  23338.06850591 -.00002050  00000-0 -11075-3 0  9990,2 52705  53.2154 244.9687 0001871 130.0064 230.1093 15.08828251 86093,6917.916,95.438,541.076,538.487,0.0
52705.0,STARLINK-3844,PAYLOAD,2023-12-04 17:32:30,15.08835928,0.0001405,53.2156,241.9951,99.1372,260.9779,0.00036028,5.45e-05,0.0,0 STARLINK-3844,1 52705U 22053BB  23338.73091053  .00005450  00000-0  36028-3 0  9994,2 52705  53.2156 241.9951 0001405  99.1372 260.9779 15.08835928 86626,6917.893,95.438,540.73,538.786,0.0
52705.0,STARLINK-3844,PAYLOAD,2023-12-04 23:54:03,15.08840623,0.0001559,53.2163,240.8101,90.7199,269.3972,0.00038784,5.89e-05,0.0,0 STARLINK-3844,1 52705U 22053BB  23338.99586811  .00005890  00000-0  38784-3 0  9992,2 52705  53.2163 240.8101 0001559  90.7199 269.3972 15.08840623 86236,6917.878,95.438,540.822,538.665,0.0
52705.0,STARLINK-3844,PAYLOAD,2023-12-05 23:44:49,15.08847076,0.00016,53.2164,236.3508,81.0674,279.0499,0.00028028,4.176e-05,0.0,0 STARLINK-3844,1 52705U 22053BB  23339.98946430  .00004176  00000-0  28028-3 0  9995,2 52705  53.2164 236.3508 0001600  81.0674 279.0499 15.08847076 86811,6917.859,95.437,540.831,538.617,0.0
52705.0,STARLINK-3844,PAYLOAD,2023-12-06 22:00:13,15.0884207,0.0001766,53.2164,232.1816,123.9479,236.1681,3.9039e-05,3.33e-06,0.0,0 STARLINK-3844,1 52705U 22053BB  23340.91682025  .00000333  00000-0  39039-4 0  9993,2 52705  53.2164 232.1816 0001766 123.9479 236.1681 15.08842070 86950,6917.874,95.437,540.961,538.517,0.0
52705.0,STARLINK-3844,PAYLOAD,2023-12-06 23:35:36,15.08843539,0.0001599,53.2165,231.887,111.3922,248.7241,-2.7082e-05,-7.19e-06,0.0,0 STARLINK-3844,1 52705U 22053BB  23340.98305987 -.00000719  00000-0 -27082-4 0  9994,2 52705  53.2165 231.8870 0001599 111.3922 248.7241 15.08843539 86531,6917.87,95.437,540.841,538.628,0.0
52705.0,STARLINK-3844,PAYLOAD,2023-12-08 02:37:10,15.08838022,0.000135,53.2163,226.8331,96.0637,264.0509,4.5677e-05,4.39e-06,0.0,0 STARLINK-3844,1 52705U 22053BB  23342.10914548  .00000439  00000-0  45677-4 0  9996,2 52705  53.2163 226.8331 0001350  96.0637 264.0509 15.08838022 86700,6917.886,95.438,540.685,538.818,0.0
52705.0,STARLINK-3844,PAYLOAD,2023-12-08 16:55:38,15.0883911,0.0001456,53.2165,224.1542,113.1475,246.9671,3.2355e-05,2.27e-06,0.0,0 STARLINK-3844,1 52705U 22053BB  23342.70530337  .00000227  00000-0  32355-4 0  9996,2 52705  53.2165 224.1542 0001456 113.1475 246.9671 15.08839110 87221,6917.883,95.438,540.755,538.741,0.0
52705.0,STARLINK-3844,PAYLOAD,2023-12-09 02:27:56,15.08841053,0.0001563,53.2172,222.3655,97.5224,262.5946,0.00011021,1.466e-05,0.0,0 STARLINK-3844,1 52705U 22053BB  23343.10273855  .00001466  00000-0  11021-3 0  9992,2 52705  53.2172 222.3655 0001563  97.5224 262.5946 15.08841053 86856,6917.877,95.437,540.823,538.661,0.0
52705.0,STARLINK-3844,PAYLOAD,2023-12-10 19:47:58,15.08838441,0.0001557,53.2172,214.6336,90.3984,269.7186,-3.8058e-06,-3.49e-06,0.0,0 STARLINK-3844,1 52705U 22053BB  23344.82498322 -.00000349  00000-0 -38058-5 0  9992,2 52705  53.2172 214.6336 0001557  90.3984 269.7186 15.08838441 87115,6917.885,95.438,540.827,538.673,0.0
52705.0,STARLINK-3844,PAYLOAD,2023-12-10 21:23:21,15.0883985,0.0001614,53.2169,214.3366,83.9134,276.2042,8.0019e-06,-1.61e-06,0.0,0 STARLINK-3844,1 52705U 22053BB  23344.89122227 -.00000161  00000-0  80019-5 0  9992,2 52705  53.2169 214.3366 0001614  83.9134 276.2042 15.08839850 87557,6917.881,95.438,540.862,538.629,0.0
52705.0,STARLINK-3844,PAYLOAD,2023-12-10 22:58:44,15.08840552,0.0001753,53.2167,214.0371,65.0904,295.0271,3.0772e-05,2.02e-06,0.0,0 STARLINK-3844,1 52705U 22053BB  23344.95746367  .00000202  00000-0  30772-4 0  9991,2 52705  53.2167 214.0371 0001753  65.0904 295.0271 15.08840552 87563,6917.879,95.438,540.956,538.531,0.0
52705.0,STARLINK-3844,PAYLOAD,2023-12-11 22:49:31,15.0884083,0.0001668,53.2164,209.5807,72.2034,287.914,3.6306e-05,2.9e-06,0.0,0 STARLINK-3844,1 52705U 22053BB  23345.95106378  .00000290  00000-0  36306-4 0  9990,2 52705  53.2164 209.5807 0001668  72.2034 287.9140 15.08840830 87713,6917.878,95.438,540.897,538.589,0.0
52705.0,STARLINK-3844,PAYLOAD,2023-12-12 21:04:55,15.0884211,0.0001616,53.2162,205.4184,75.8853,284.2319,3.7903e-05,3.15e-06,0.0,0 STARLINK-3844,1 52705U 22053BB  23346.87842232  .00000315  00000-0  37903-4 0  9990,2 52705  53.2162 205.4184 0001616  75.8853 284.2319 15.08842110 87851,6917.874,95.437,540.857,538.621,0.0
52705.0,STARLINK-3844,PAYLOAD,2023-12-13 19:20:19,15.08843008,0.0001467,53.2159,201.2549,90.0792,270.0368,3.7015e-05,3.01e-06,0.0,0 STARLINK-3844,1 52705U 22053BB  23347.80577896  .00000301  00000-0  37015-4 0  9994,2 52705  53.2159 201.2549 0001467  90.0792 270.0368 15.08843008 87563,6917.871,95.437,540.751,538.721,0.0
52705.0,STARLINK-3844,PAYLOAD,2023-12-13 20:55:42,15.08843677,0.0001476,53.2157,200.9575,89.5574,270.5587,4.2185e-05,3.84e-06,0.0,0 STARLINK-3844,1 52705U 22053BB  23347.87201816  .00000384  00000-0  42185-4 0  9992,2 52705  53.2157 200.9575 0001476  89.5574 270.5587 15.08843677 88007,6917.869,95.437,540.755,538.713,0.0
52705.0,STARLINK-3844,PAYLOAD,2023-12-14 20:46:29,15.08845558,0.000154,53.2163,196.4939,96.2182,263.8985,5.2259e-05,5.44e-06,0.0,0 STARLINK-3844,1 52705U 22053BB  23348.86561420  .00000544  00000-0  52259-4 0  9993,2 52705  53.2163 196.4939 0001540  96.2182 263.8985 15.08845558 87724,6917.863,95.437,540.794,538.663,0.0
52705.0,STARLINK-3844,PAYLOAD,2023-12-15 19:01:51,15.08853279,0.000152,53.2163,192.3299,99.5205,260.5958,0.00011247,1.503e-05,0.0,0 STARLINK-3844,1 52705U 22053BB  23349.79296125  .00001503  00000-0  11247-3 0  9990,2 52705  53.2163 192.3299 0001520  99.5205 260.5958 15.08853279 87866,6917.84,95.437,540.756,538.653,0.0
52705.0,STARLINK-3844,PAYLOAD,2023-12-15 20:37:15,15.08852934,0.0001497,53.2163,192.0338,97.9263,262.1899,0.00010644,1.407e-05,0.0,0 STARLINK-3844,1 52705U 22053BB  23349.85920140  .00001407  00000-0  10644-3 0  9991,2 52705  53.2163 192.0338 0001497  97.9263 262.1899 15.08852934 88305,6917.841,95.437,540.741,538.67,0.0
52705.0,STARLINK-3844,PAYLOAD,2023-12-16 18:52:40,15.08837698,0.0001615,53.2162,187.87,114.9095,245.2065,-8.6098e-05,-1.658e-05,0.0,0 STARLINK-3844,1 52705U 22053BB  23350.78657675 -.00001658  00000-0 -86098-4 0  9992,2 52705  53.2162 187.8700 0001615 114.9095 245.2065 15.08837698 88019,6917.887,95.438,540.87,538.635,0.0
52705.0,STARLINK-3844,PAYLOAD,2023-12-17 18:43:27,15.0883445,0.0001492,53.2163,183.4132,102.9071,257.2088,-0.00011273,-2.081e-05,0.0,0 STARLINK-3844,1 52705U 22053BB  23351.78018416 -.00002081  00000-0 -11273-3 0  9990,2 52705  53.2163 183.4132 0001492 102.9071 257.2088 15.08834450 88599,6917.897,95.438,540.795,538.73,0.0
52705.0,STARLINK-3844,PAYLOAD,2023-12-18 20:09:38,15.08825465,0.0001424,53.2158,178.6561,98.8813,261.2341,8.6752e-05,1.092e-05,0.0,0 STARLINK-3844,1 52705U 22053BB  23352.84003264  .00001092  00000-0  86752-4 0  9997,2 52705  53.2158 178.6561 0001424  98.8813 261.2341 15.08825465 88321,6917.925,95.438,540.775,538.805,0.0
52705.0,STARLINK-3844,PAYLOAD,2023-12-19 20:00:25,15.08836423,0.0001458,53.2164,174.1923,86.122,273.9939,0.00013953,1.933e-05,0.0,0 STARLINK-3844,1 52705U 22053BB  23353.83363272  .00001933  00000-0  13953-3 0  9991,2 52705  53.2164 174.1923 0001458  86.1220 273.9939 15.08836423 88475,6917.891,95.438,540.765,538.748,0.0
52705.0,STARLINK-3844,PAYLOAD,2023-12-20 18:15:49,15.08844011,0.0001402,53.216,170.0296,90.49,269.6253,0.00014707,2.054e-05,0.0,0 STARLINK-3844,1 52705U 22053BB  23354.76099014  .00002054  00000-0  14707-3 0  9997,2 52705  53.2160 170.0296 0001402  90.4900 269.6253 15.08844011 89048,6917.868,95.437,540.703,538.763,0.0
52705.0,STARLINK-3844,PAYLOAD,2023-12-21 14:55:50,15.08845509,0.0001356,53.2158,166.1641,94.0084,266.1063,8.7577e-05,1.106e-05,0.0,0 STARLINK-3844,1 52705U 22053BB  23355.62210973  .00001106  00000-0  87577-4 0  9995,2 52705  53.2158 166.1641 0001356  94.0084 266.1063 15.08845509 89174,6917.864,95.437,540.667,538.79,0.0
52705.0,STARLINK-3844,PAYLOAD,2023-12-22 14:46:37,15.08846418,0.0001269,53.2153,161.7041,91.1971,268.9167,8.5947e-05,1.08e-05,0.0,0 STARLINK-3844,1 52705U 22053BB  23356.61570676  .00001080  00000-0  85947-4 0  9994,2 52705  53.2153 161.7041 0001269  91.1971 268.9167 15.08846418 89322,6917.861,95.437,540.604,538.848,0.0
52705.0,STARLINK-3844,PAYLOAD,2023-12-22 16:22:00,15.08845427,0.0001261,53.2151,161.4042,101.8519,258.2614,6.7934e-05,7.94e-06,0.0,0 STARLINK-3844,1 52705U 22053BB  23356.68194654  .00000794  00000-0  67934-4 0  9996,2 52705  53.2151 161.4042 0001261 101.8519 258.2614 15.08845427 88908,6917.864,95.437,540.601,538.856,0.0
